CCSDS_OMM_VERS = 2.0
CREATION_DATE  = 
ORIGINATOR     = 

OBJECT_NAME    = STARLINK-35833
OBJECT_ID      = 2025-265AC
CENTER_NAME    = EARTH
REF_FRAME      = TEME
TIME_SYSTEM    = UTC
MEAN_ELEMENT_THEORY = SGP/SGP4

EPOCH          = 2025-12-01T06:00:02.000160
MEAN_MOTION    = 15.75361271
ECCENTRICITY   = .0001576
INCLINATION    = 42.9999
RA_OF_ASC_NODE = 122.3579
ARG_OF_PERICENTER = 278.9715
MEAN_ANOMALY   = 337.7286

EPHEMERIS_TYPE = 0
CLASSIFICATION_TYPE = U
NORAD_CAT_ID   = 66542
ELEMENT_SET_NO = 999
REV_AT_EPOCH   = 314
BSTAR          = -.32620966E-2
MEAN_MOTION_DOT = -.480825E-2
MEAN_MOTION_DDOT = 0

CCSDS_OMM_VERS = 2.0
CREATION_DATE  = 
ORIGINATOR     = 

OBJECT_NAME    = STARLINK-35315
OBJECT_ID      = 2025-265AD
CENTER_NAME    = EARTH
REF_FRAME      = TEME
TIME_SYSTEM    = UTC
MEAN_ELEMENT_THEORY = SGP/SGP4

EPOCH          = 2025-12-01T06:00:02.000160
MEAN_MOTION    = 15.75291383
ECCENTRICITY   = .00013286
INCLINATION    = 43.0002
RA_OF_ASC_NODE = 122.3527
ARG_OF_PERICENTER = 261.5270
MEAN_ANOMALY   = 357.1216

EPHEMERIS_TYPE = 0
CLASSIFICATION_TYPE = U
NORAD_CAT_ID   = 66543
ELEMENT_SET_NO = 999
REV_AT_EPOCH   = 303
BSTAR          = -.28296554E-2
MEAN_MOTION_DOT = -.418858E-2
MEAN_MOTION_DDOT = 0

CCSDS_OMM_VERS = 2.0
CREATION_DATE  = 
ORIGINATOR     = 

OBJECT_NAME    = STARLINK-35728
OBJECT_ID      = 2025-265AE
CENTER_NAME    = EARTH
REF_FRAME      = TEME
TIME_SYSTEM    = UTC
MEAN_ELEMENT_THEORY = SGP/SGP4

EPOCH          = 2025-12-01T06:00:02.000160
MEAN_MOTION    = 15.75282694
ECCENTRICITY   = .000143
INCLINATION    = 42.9999
RA_OF_ASC_NODE = 122.3479
ARG_OF_PERICENTER = 260.9600
MEAN_ANOMALY   = 359.6160

EPHEMERIS_TYPE = 0
CLASSIFICATION_TYPE = U
NORAD_CAT_ID   = 66544
ELEMENT_SET_NO = 999
REV_AT_EPOCH   = 314
BSTAR          = -.28439607E-2
MEAN_MOTION_DOT = -.420731E-2
MEAN_MOTION_DDOT = 0

CCSDS_OMM_VERS = 2.0
CREATION_DATE  = 
ORIGINATOR     = 

OBJECT_NAME    = SHIJIAN-30A
OBJECT_ID      = 2025-266A
CENTER_NAME    = EARTH
REF_FRAME      = TEME
TIME_SYSTEM    = UTC
MEAN_ELEMENT_THEORY = SGP/SGP4

EPOCH          = 2025-12-01T06:46:48.362016
MEAN_MOTION    = 15.15272059
ECCENTRICITY   = .00126995
INCLINATION    = 51.7989
RA_OF_ASC_NODE = 26.5281
ARG_OF_PERICENTER = 315.2827
MEAN_ANOMALY   = 44.7124

EPHEMERIS_TYPE = 0
CLASSIFICATION_TYPE = U
NORAD_CAT_ID   = 66545
ELEMENT_SET_NO = 999
REV_AT_EPOCH   = 184
BSTAR          = .77673086E-3
MEAN_MOTION_DOT = .14546E-3
MEAN_MOTION_DDOT = 0

CCSDS_OMM_VERS = 2.0
CREATION_DATE  = 
ORIGINATOR     = 

OBJECT_NAME    = SHIJIAN-30B
OBJECT_ID      = 2025-266B
CENTER_NAME    = EARTH
REF_FRAME      = TEME
TIME_SYSTEM    = UTC
MEAN_ELEMENT_THEORY = SGP/SGP4

EPOCH          = 2025-12-01T06:48:20.893824
MEAN_MOTION    = 15.15324438
ECCENTRICITY   = .00103742
INCLINATION    = 51.7972
RA_OF_ASC_NODE = 26.5336
ARG_OF_PERICENTER = 318.1455
MEAN_ANOMALY   = 41.8728

EPHEMERIS_TYPE = 0
CLASSIFICATION_TYPE = U
NORAD_CAT_ID   = 66546
ELEMENT_SET_NO = 999
REV_AT_EPOCH   = 184
BSTAR          = .89485294E-3
MEAN_MOTION_DOT = .16826E-3
MEAN_MOTION_DDOT = 0

CCSDS_OMM_VERS = 2.0
CREATION_DATE  = 
ORIGINATOR     = 

OBJECT_NAME    = SHIJIAN-30C
OBJECT_ID      = 2025-266C
CENTER_NAME    = EARTH
REF_FRAME      = TEME
TIME_SYSTEM    = UTC
MEAN_ELEMENT_THEORY = SGP/SGP4

EPOCH          = 2025-12-01T06:49:31.038528
MEAN_MOTION    = 15.15370115
ECCENTRICITY   = .00113112
INCLINATION    = 51.7984
RA_OF_ASC_NODE = 26.5392
ARG_OF_PERICENTER = 310.3992
MEAN_ANOMALY   = 49.5997

EPHEMERIS_TYPE = 0
CLASSIFICATION_TYPE = U
NORAD_CAT_ID   = 66547
ELEMENT_SET_NO = 999
REV_AT_EPOCH   = 184
BSTAR          = .77856603E-3
MEAN_MOTION_DOT = .14617E-3
MEAN_MOTION_DDOT = 0

CCSDS_OMM_VERS = 2.0
CREATION_DATE  = 
ORIGINATOR     = 

OBJECT_NAME    = CZ-2C R/B
OBJECT_ID      = 2025-266D
CENTER_NAME    = EARTH
REF_FRAME      = TEME
TIME_SYSTEM    = UTC
MEAN_ELEMENT_THEORY = SGP/SGP4

EPOCH          = 2025-12-01T05:40:11.841024
MEAN_MOTION    = 15.29784538
ECCENTRICITY   = .00849616
INCLINATION    = 52.0548
RA_OF_ASC_NODE = 26.0701
ARG_OF_PERICENTER = 133.8725
MEAN_ANOMALY   = 226.9321

EPHEMERIS_TYPE = 0
CLASSIFICATION_TYPE = U
NORAD_CAT_ID   = 66548
ELEMENT_SET_NO = 999
REV_AT_EPOCH   = 185
BSTAR          = .45237451E-3
MEAN_MOTION_DOT = .14404E-3
MEAN_MOTION_DDOT = 0

CCSDS_OMM_VERS = 2.0
CREATION_DATE  = 
ORIGINATOR     = 

OBJECT_NAME    = SHIJIAN-28
OBJECT_ID      = 2025-277A
CENTER_NAME    = EARTH
REF_FRAME      = TEME
TIME_SYSTEM    = UTC
MEAN_ELEMENT_THEORY = SGP/SGP4

EPOCH          = 2025-11-30T18:06:43.124256
MEAN_MOTION    = 2.28019775
ECCENTRICITY   = .7300519
INCLINATION    = 14.4344
RA_OF_ASC_NODE = 275.4056
ARG_OF_PERICENTER = 179.5026
MEAN_ANOMALY   = 182.3580

EPHEMERIS_TYPE = 0
CLASSIFICATION_TYPE = U
NORAD_CAT_ID   = 66549
ELEMENT_SET_NO = 999
REV_AT_EPOCH   = 4
BSTAR          = .62085E-3
MEAN_MOTION_DOT = .6315E-4
MEAN_MOTION_DDOT = 0

CCSDS_OMM_VERS = 2.0
CREATION_DATE  = 
ORIGINATOR     = 

OBJECT_NAME    = CZ-7A R/B
OBJECT_ID      = 2025-277B
CENTER_NAME    = EARTH
REF_FRAME      = TEME
TIME_SYSTEM    = UTC
MEAN_ELEMENT_THEORY = SGP/SGP4

EPOCH          = 2025-11-30T08:01:25.993632
MEAN_MOTION    = 2.39605114
ECCENTRICITY   = .7237467
INCLINATION    = 14.4324
RA_OF_ASC_NODE = 275.7460
ARG_OF_PERICENTER = 177.8910
MEAN_ANOMALY   = 189.2280

EPHEMERIS_TYPE = 0
CLASSIFICATION_TYPE = U
NORAD_CAT_ID   = 66550
ELEMENT_SET_NO = 999
REV_AT_EPOCH   = 3
BSTAR          = .39957E-3
MEAN_MOTION_DOT = .91857E-3
MEAN_MOTION_DDOT = -.33208E-6

CCSDS_OMM_VERS = 2.0
CREATION_DATE  = 
ORIGINATOR     = 

OBJECT_NAME    = GLOBAL-33
OBJECT_ID      = 2025-267A
CENTER_NAME    = EARTH
REF_FRAME      = TEME
TIME_SYSTEM    = UTC
MEAN_ELEMENT_THEORY = SGP/SGP4

EPOCH          = 2025-12-01T02:52:55.278336
MEAN_MOTION    = 15.31207177
ECCENTRICITY   = .00057823
INCLINATION    = 42.0186
RA_OF_ASC_NODE = 124.0556
ARG_OF_PERICENTER = 330.8403
MEAN_ANOMALY   = 29.2110

EPHEMERIS_TYPE = 0
CLASSIFICATION_TYPE = U
NORAD_CAT_ID   = 66554
ELEMENT_SET_NO = 999
REV_AT_EPOCH   = 162
BSTAR          = .44760546E-3
MEAN_MOTION_DOT = .13563E-3
MEAN_MOTION_DDOT = 0

CCSDS_OMM_VERS = 2.0
CREATION_DATE  = 
ORIGINATOR     = 

OBJECT_NAME    = ELECTRON KICK STAGE R/B
OBJECT_ID      = 2025-267B
CENTER_NAME    = EARTH
REF_FRAME      = TEME
TIME_SYSTEM    = UTC
MEAN_ELEMENT_THEORY = SGP/SGP4

EPOCH          = 2025-12-01T02:46:24.651840
MEAN_MOTION    = 15.31987855
ECCENTRICITY   = .00075457
INCLINATION    = 42.0167
RA_OF_ASC_NODE = 124.0236
ARG_OF_PERICENTER = 330.6271
MEAN_ANOMALY   = 29.4142

EPHEMERIS_TYPE = 0
CLASSIFICATION_TYPE = U
NORAD_CAT_ID   = 66555
ELEMENT_SET_NO = 999
REV_AT_EPOCH   = 162
BSTAR          = .77042927E-3
MEAN_MOTION_DOT = .24156E-3
MEAN_MOTION_DDOT = 0

CCSDS_OMM_VERS = 2.0
CREATION_DATE  = 
ORIGINATOR     = 

OBJECT_NAME    = STARLINK-35699
OBJECT_ID      = 2025-268A
CENTER_NAME    = EARTH
REF_FRAME      = TEME
TIME_SYSTEM    = UTC
MEAN_ELEMENT_THEORY = SGP/SGP4

EPOCH          = 2025-12-01T06:00:02.000160
MEAN_MOTION    = 15.81670055
ECCENTRICITY   = .00016348
INCLINATION    = 42.9966
RA_OF_ASC_NODE = 189.5685
ARG_OF_PERICENTER = 267.8108
MEAN_ANOMALY   = 299.3529

EPHEMERIS_TYPE = 0
CLASSIFICATION_TYPE = U
NORAD_CAT_ID   = 66557
ELEMENT_SET_NO = 999
REV_AT_EPOCH   = 282
BSTAR          = -.82426905E-2
MEAN_MOTION_DOT = -.1506073E-1
MEAN_MOTION_DDOT = 0

CCSDS_OMM_VERS = 2.0
CREATION_DATE  = 
ORIGINATOR     = 

OBJECT_NAME    = STARLINK-35695
OBJECT_ID      = 2025-268B
CENTER_NAME    = EARTH
REF_FRAME      = TEME
TIME_SYSTEM    = UTC
MEAN_ELEMENT_THEORY = SGP/SGP4

EPOCH          = 2025-12-01T06:00:02.000160
MEAN_MOTION    = 15.81688047
ECCENTRICITY   = .0001605
INCLINATION    = 42.9966
RA_OF_ASC_NODE = 189.5636
ARG_OF_PERICENTER = 267.8808
MEAN_ANOMALY   = 301.2569

EPHEMERIS_TYPE = 0
CLASSIFICATION_TYPE = U
NORAD_CAT_ID   = 66558
ELEMENT_SET_NO = 999
REV_AT_EPOCH   = 282
BSTAR          = -.83565754E-2
MEAN_MOTION_DOT = -.1525474E-1
MEAN_MOTION_DDOT = 0

CCSDS_OMM_VERS = 2.0
CREATION_DATE  = 
ORIGINATOR     = 

OBJECT_NAME    = STARLINK-35419
OBJECT_ID      = 2025-268C
CENTER_NAME    = EARTH
REF_FRAME      = TEME
TIME_SYSTEM    = UTC
MEAN_ELEMENT_THEORY = SGP/SGP4

EPOCH          = 2025-12-01T06:00:02.000160
MEAN_MOTION    = 15.81687306
ECCENTRICITY   = .00017095
INCLINATION    = 42.9965
RA_OF_ASC_NODE = 189.5581
ARG_OF_PERICENTER = 266.2046
MEAN_ANOMALY   = 305.0775

EPHEMERIS_TYPE = 0
CLASSIFICATION_TYPE = U
NORAD_CAT_ID   = 66559
ELEMENT_SET_NO = 999
REV_AT_EPOCH   = 282
BSTAR          = -.85023711E-2
MEAN_MOTION_DOT = -.1548837E-1
MEAN_MOTION_DDOT = 0

CCSDS_OMM_VERS = 2.0
CREATION_DATE  = 
ORIGINATOR     = 

OBJECT_NAME    = STARLINK-35411
OBJECT_ID      = 2025-268D
CENTER_NAME    = EARTH
REF_FRAME      = TEME
TIME_SYSTEM    = UTC
MEAN_ELEMENT_THEORY = SGP/SGP4

EPOCH          = 2025-12-01T06:00:02.000160
MEAN_MOTION    = 15.81698654
ECCENTRICITY   = .00016059
INCLINATION    = 42.9968
RA_OF_ASC_NODE = 189.5530
ARG_OF_PERICENTER = 263.6264
MEAN_ANOMALY   = 309.6796

EPHEMERIS_TYPE = 0
CLASSIFICATION_TYPE = U
NORAD_CAT_ID   = 66560
ELEMENT_SET_NO = 999
REV_AT_EPOCH   = 282
BSTAR          = -.8619212E-2
MEAN_MOTION_DOT = -.1568104E-1
MEAN_MOTION_DDOT = 0

